NORAD_CAT_ID,OBJECT_NAME,OBJECT_TYPE,EPOCH,MEAN_MOTION,ECCENTRICITY,INCLINATION,RA_OF_ASC_NODE,ARG_OF_PERICENTER,MEAN_ANOMALY,BSTAR,MEAN_MOTION_DOT,MEAN_MOTION_DDOT,TLE_LINE0,TLE_LINE1,TLE_LINE2,SEMIMAJOR_AXIS,PERIOD,APOGEE,PERIGEE,DECAYED
50174.0,STARLINK-3292,PAYLOAD,2023-06-26 05:50:45,15.08835326,9.74e-05,53.2168,1.9369,92.2145,267.8959,1.6555e-05,-2.4e-07,0.0,0 STARLINK-3292,1 50174U 21125U   23177.24358253 -.00000024  00000-0  16555-4 0  9993,2 50174  53.2168   1.9369 0000974  92.2145 267.8959 15.08835326 87041,6917.895,95.438,540.433,539.086,0.0
50174.0,STARLINK-3292,PAYLOAD,2023-06-27 18:24:37,15.08844737,0.0001097,53.2178,355.0982,88.0682,272.0436,0.0001547,2.175e-05,0.0,0 STARLINK-3292,1 50174U 21125U   23178.76710317  .00002175  00000-0  15470-3 0  9996,2 50174  53.2178 355.0982 0001097  88.0682 272.0436 15.08844737 87271,6917.866,95.437,540.49,538.972,0.0
50174.0,STARLINK-3292,PAYLOAD,2023-06-28 18:15:24,15.08841928,0.0001268,53.2184,350.6348,109.7086,250.4043,8.5494e-05,1.073e-05,0.0,0 STARLINK-3292,1 50174U 21125U   23179.76070337  .00001073  00000-0  85494-4 0  9998,2 50174  53.2184 350.6348 0001268 109.7086 250.4043 15.08841928 87424,6917.874,95.437,540.617,538.862,0.0
50174.0,STARLINK-3292,PAYLOAD,2023-06-30 14:46:12,15.08837063,0.0001098,53.2178,342.3117,90.0521,270.0597,-8.7059e-05,-1.673e-05,0.0,0 STARLINK-3292,1 50174U 21125U   23181.61542365 -.00001673  00000-0 -87059-4 0  9997,2 50174  53.2178 342.3117 0001098  90.0521 270.0597 15.08837063 87704,6917.889,95.438,540.514,538.995,0.0
50174.0,STARLINK-3292,PAYLOAD,2023-06-30 21:07:44,15.08844568,0.0001016,53.2177,341.1223,87.4247,272.6861,3.9665e-05,3.44e-06,0.0,0 STARLINK-3292,1 50174U 21125U   23181.88037977  .00000344  00000-0  39665-4 0  9996,2 50174  53.2177 341.1223 0001016  87.4247 272.6861 15.08844568 87747,6917.866,95.437,540.434,539.029,0.0
50174.0,STARLINK-3292,PAYLOAD,2023-07-01 09:50:50,15.08832215,9.43e-05,53.2174,338.7436,92.0952,268.0149,2.4481e-06,-2.49e-06,0.0,0 STARLINK-3292,1 50174U 21125U   23182.41030775 -.00000249  00000-0  24481-5 0  9991,2 50174  53.2174 338.7436 0000943  92.0952 268.0149 15.08832215 87828,6917.904,95.438,540.422,539.117,0.0
50174.0,STARLINK-3292,PAYLOAD,2023-07-01 19:23:09,15.0884164,0.0001079,53.2178,336.9596,94.0018,266.1097,1.9067e-05,1.6e-07,0.0,0 STARLINK-3292,1 50174U 21125U   23182.80774389  .00000016  00000-0  19067-4 0  9994,2 50174  53.2178 336.9596 0001079  94.0018 266.1097 15.08841640 87884,6917.875,95.437,540.487,538.994,0.0
50174.0,STARLINK-3292,PAYLOAD,2023-07-03 09:32:24,15.08840221,0.0001019,53.2176,329.8217,89.5168,270.5941,0.00014509,2.022e-05,0.0,0 STARLINK-3292,1 50174U 21125U   23184.39750822  .00002022  00000-0  14509-3 0  9990,2 50174  53.2176 329.8217 0001019  89.5168 270.5941 15.08840221 88121,6917.88,95.438,540.45,539.04,0.0
50174.0,STARLINK-3292,PAYLOAD,2023-07-04 15:44:44,15.08841031,0.0001011,53.2178,324.1734,79.1632,280.9473,4.8175e-05,4.79e-06,0.0,0 STARLINK-3292,1 50174U 21125U   23185.65607061  .00000479  00000-0  48175-4 0  9997,2 50174  53.2178 324.1734 0001011  79.1632 280.9473 15.08841031 88314,6917.877,95.437,540.442,539.043,0.0
50174.0,STARLINK-3292,PAYLOAD,2023-07-06 18:37:04,15.08849904,0.0001133,53.2181,314.657,77.397,282.7149,0.00015125,2.121e-05,0.0,0 STARLINK-3292,1 50174U 21125U   23187.77574131  .00002121  00000-0  15125-3 0  9997,2 50174  53.2181 314.6570 0001133  77.3970 282.7149 15.08849904 88632,6917.85,95.437,540.499,538.931,0.0
50174.0,STARLINK-3292,PAYLOAD,2023-07-07 08:55:33,15.08838935,0.0001143,53.2182,311.9796,97.4076,262.7046,5.3114e-05,5.58e-06,0.0,0 STARLINK-3292,1 50174U 21125U   23188.37191107  .00000558  00000-0  53114-4 0  9995,2 50174  53.2182 311.9796 0001143  97.4076 262.7046 15.08838935 88720,6917.884,95.438,540.539,538.958,0.0
50174.0,STARLINK-3292,PAYLOAD,2023-07-07 16:52:28,15.08848306,0.0001039,53.2169,310.4955,81.4674,278.6436,0.00013917,1.928e-05,0.0,0 STARLINK-3292,1 50174U 21125U   23188.70310440  .00001928  00000-0  13917-3 0  9993,2 50174  53.2169 310.4955 0001039  81.4674 278.6436 15.08848306 88774,6917.855,95.437,540.439,539.001,0.0
50174.0,STARLINK-3292,PAYLOAD,2023-07-08 00:49:24,15.08841475,0.0001038,53.2159,309.0093,74.4019,285.7088,2.7242e-05,1.46e-06,0.0,0 STARLINK-3292,1 50174U 21125U   23189.03430749  .00000146  00000-0  27242-4 0  9993,2 50174  53.2159 309.0093 0001038  74.4019 285.7088 15.08841475 88822,6917.876,95.437,540.459,539.023,0.0
50174.0,STARLINK-3292,PAYLOAD,2023-07-09 11:47:54,15.08829145,0.0001008,53.2193,302.4688,98.1735,261.9371,-1.3486e-05,-5.02e-06,0.0,0 STARLINK-3292,1 50174U 21125U   23190.49160191 -.00000502  00000-0 -13486-4 0  9999,2 50174  53.2193 302.4688 0001008  98.1735 261.9371 15.08829145 89048,6917.914,95.438,540.476,539.081,0.0
50174.0,STARLINK-3292,PAYLOAD,2023-07-10 13:14:04,15.0883048,8.58e-05,53.218,297.7096,91.8811,268.2279,0.00024406,3.598e-05,0.0,0 STARLINK-3292,1 50174U 21125U   23191.55143800  .00003598  00000-0  24406-3 0  9994,2 50174  53.2180 297.7096 0000858  91.8811 268.2279 15.08830480 89209,6917.909,95.438,540.368,539.181,0.0
50174.0,STARLINK-3292,PAYLOAD,2023-07-10 14:49:26,15.08846855,9.45e-05,53.218,297.4124,87.4728,272.6373,0.0001174,1.582e-05,0.0,0 STARLINK-3292,1 50174U 21125U   23191.61766940  .00001582  00000-0  11740-3 0  9995,2 50174  53.2180 297.4124 0000945  87.4728 272.6373 15.08846855 89211,6917.859,95.437,540.378,539.071,0.0
50174.0,STARLINK-3292,PAYLOAD,2023-07-11 06:43:18,15.088358,0.0001057,53.218,294.4389,85.8358,274.2755,0.00013648,1.885e-05,0.0,0 STARLINK-3292,1 50174U 21125U   23192.28007667  .00001885  00000-0  13648-3 0  9998,2 50174  53.2180 294.4389 0001057  85.8358 274.2755 15.08835800 89318,6917.893,95.438,540.489,539.027,0.0
50174.0,STARLINK-3292,PAYLOAD,2023-07-12 12:55:37,15.0884831,0.0001204,53.2178,288.7899,82.7579,277.355,4.0738e-05,3.61e-06,0.0,0 STARLINK-3292,1 50174U 21125U   23193.53863147  .00000361  00000-0  40738-4 0  9999,2 50174  53.2178 288.7899 0001204  82.7579 277.3550 15.08848310 89500,6917.855,95.437,540.553,538.887,0.0
50174.0,STARLINK-3292,PAYLOAD,2023-07-13 12:46:25,15.08836751,0.0001176,53.2171,284.3289,84.7189,275.3938,1.6549e-05,-2.4e-07,0.0,0 STARLINK-3292,1 50174U 21125U   23194.53223894 -.00000024  00000-0  16549-4 0  9999,2 50174  53.2171 284.3289 0001176  84.7189 275.3938 15.08836751 89655,6917.89,95.438,540.569,538.942,0.0
50174.0,STARLINK-3292,PAYLOAD,2023-07-14 11:01:49,15.08843578,0.0001244,53.2173,280.165,90.6891,269.4244,6.0579e-05,6.76e-06,0.0,0 STARLINK-3292,1 50174U 21125U   23195.45959537  .00000676  00000-0  60579-4 0  9995,2 50174  53.2173 280.1650 0001244  90.6891 269.4244 15.08843578 89799,6917.869,95.437,540.595,538.874,0.0
50174.0,STARLINK-3292,PAYLOAD,2023-07-14 22:09:30,15.08868378,0.0001105,53.2172,278.084,97.1358,262.976,-0.00028432,-4.813e-05,0.0,0 STARLINK-3292,1 50174U 21125U   23195.92326434 -.00004813  00000-0 -28432-3 0  9991,2 50174  53.2172 278.0840 0001105  97.1358 262.9760 15.08868378 89865,6917.794,95.436,540.423,538.894,0.0
50174.0,STARLINK-3292,PAYLOAD,2023-07-15 10:52:36,15.08840382,0.0001158,53.2176,275.7105,104.1773,255.9347,0.00012597,1.718e-05,0.0,0 STARLINK-3292,1 50174U 21125U   23196.45319710  .00001718  00000-0  12597-3 0  9993,2 50174  53.2176 275.7105 0001158 104.1773 255.9347 15.08840382 89942,6917.879,95.438,540.545,538.943,0.0
50174.0,STARLINK-3292,PAYLOAD,2023-07-16 04:21:51,15.08826383,9.2e-05,53.2172,272.4329,103.5756,256.5338,-0.00019588,-3.403e-05,0.0,0 STARLINK-3292,1 50174U 21125U   23197.18184442 -.00003403  00000-0 -19588-3 0  9998,2 50174  53.2172 272.4329 0000920 103.5756 256.5338 15.08826383 90056,6917.922,95.438,540.423,539.151,0.0
50174.0,STARLINK-3292,PAYLOAD,2023-07-16 15:29:33,15.08835746,0.0001246,53.2174,270.352,92.723,267.3905,-2.6398e-05,-7.08e-06,0.0,0 STARLINK-3292,1 50174U 21125U   23197.64552281 -.00000708  00000-0 -26398-4 0  9992,2 50174  53.2174 270.3520 0001246  92.7230 267.3905 15.08835746 90127,6917.893,95.438,540.62,538.896,0.0
50174.0,STARLINK-3292,PAYLOAD,2023-07-17 12:09:33,15.0884366,0.0001154,53.2166,266.4854,94.3671,265.7453,0.00016509,2.341e-05,0.0,0 STARLINK-3292,1 50174U 21125U   23198.50664190  .00002341  00000-0  16509-3 0  9996,2 50174  53.2166 266.4854 0001154  94.3671 265.7453 15.08843660 90257,6917.869,95.437,540.533,538.936,0.0
50174.0,STARLINK-3292,PAYLOAD,2023-07-19 10:15:45,15.08835759,0.0001237,53.2159,257.8636,76.456,283.657,-9.8588e-06,-4.45e-06,0.0,0 STARLINK-3292,1 50174U 21125U   23200.42760766 -.00000445  00000-0 -98588-5 0  9991,2 50174  53.2159 257.8636 0001237  76.4560 283.6570 15.08835759 90542,6917.893,95.438,540.614,538.903,0.0
50174.0,STARLINK-3292,PAYLOAD,2023-07-21 03:35:46,15.08842192,0.0001183,53.2156,250.1303,95.1867,264.9261,0.0002123,3.093e-05,0.0,0 STARLINK-3292,1 50174U 21125U   23202.14984792  .00003093  00000-0  21230-3 0  9997,2 50174  53.2156 250.1303 0001183  95.1867 264.9261 15.08842192 90801,6917.874,95.437,540.557,538.92,0.0
50174.0,STARLINK-3292,PAYLOAD,2023-07-24 03:08:08,15.08837283,0.0001211,53.2164,236.7486,100.7318,259.3811,6.7254e-05,7.83e-06,0.0,0 STARLINK-3292,1 50174U 21125U   23205.13065094  .00000783  00000-0  67254-4 0  9994,2 50174  53.2164 236.7486 0001211 100.7318 259.3811 15.08837283 91780,6917.889,95.438,540.591,538.916,0.0
50174.0,STARLINK-3292,PAYLOAD,2023-07-25 09:20:27,15.08841421,0.0001075,53.2157,231.0985,96.524,263.5875,9.5518e-05,1.233e-05,0.0,0 STARLINK-3292,1 50174U 21125U   23206.38920983  .00001233  00000-0  95518-4 0  9994,2 50174  53.2157 231.0985 0001075  96.5240 263.5875 15.08841421 91975,6917.876,95.437,540.485,538.997,0.0
50174.0,STARLINK-3292,PAYLOAD,2023-07-26 01:14:19,15.08838416,0.0001103,53.2157,228.1247,91.6057,268.5061,9.4064e-05,1.209e-05,0.0,0 STARLINK-3292,1 50174U 21125U   23207.05161302  .00001209  00000-0  94064-4 0  9999,2 50174  53.2157 228.1247 0001103  91.6057 268.5061 15.08838416 92071,6917.885,95.438,540.513,538.987,0.0
